OBJECT_NAME,OBJECT_ID,EPOCH,MEAN_MOTION,ECCENTRICITY,INCLINATION,RA_OF_ASC_NODE,ARG_OF_PERICENTER,MEAN_ANOMALY,EPHEMERIS_TYPE,CLASSIFICATION_TYPE,NORAD_CAT_ID,ELEMENT_SET_NO,REV_AT_EPOCH,BSTAR,MEAN_MOTION_DOT,MEAN_MOTION_DDOT
CUBEBUG-2 (LO-74),2013-066AA,2026-07-02T14:28:44.926464,14.93890310,.00566514,97.8915,132.6479,338.1191,21.7609,0,U,39440,999,67929,.50528071E-3,.5482E-4,0
FUNCUBE-1 (AO-73),2013-066AE,2026-07-02T10:26:09.275712,15.09675808,.00372882,97.8285,155.2011,149.2742,211.0681,0,U,39444,999,68196,.46292181E-3,.7511E-4,0
UWE-3,2013-066AG,2026-07-02T14:07:12.975168,14.97137588,.00471928,97.8709,139.7682,268.5027,91.0788,0,U,39446,999,67988,.30245019E-3,.3508E-4,0
UNISAT-6,2014-033C,2026-07-02T09:28:59.004768,14.88320443,.00452545,97.7896,335.8406,20.1232,340.1756,0,U,40012,999,64842,.31173307E-3,.2882E-4,0
DUCHIFAT-1,2014-033M,2026-07-02T02:25:15.934368,15.67889029,.00000967,98.0445,244.3920,180.5510,179.5749,0,U,40021,999,65808,.12874894E-2,.143832E-2,0
QB50P1,2014-033R,2026-07-01T23:28:15.894336,15.18486932,.00093476,98.0959,195.1628,164.7109,195.4407,0,U,40025,999,65527,.51493464E-3,.10559E-3,0
LILACSAT-2,2015-049K,2026-07-02T14:53:28.493952,15.51962930,.00071653,97.4622,221.0521,181.0848,179.0390,0,U,40908,999,59814,.30797702E-3,.18438E-3,0
FOX-1A (AO-85),2015-058D,2026-07-02T13:52:35.907168,14.91033762,.01314555,64.7737,231.1515,50.6094,310.6573,0,U,40967,999,11586,.23339563E-3,.2553E-4,0
CAS-2T & KS-1Q,2016-066G,2026-07-02T14:47:07.867392,14.44744619,.03427921,98.3817,259.1758,82.8250,281.1776,0,U,41847,999,50702,.24657525E-3,.1715E-4,0
RADFXSAT (FOX-1B),2017-073E,2026-07-02T03:45:10.344672,15.12917223,.01481852,97.4681,50.0656,277.0157,81.4241,0,U,43017,999,46765,.33553019E-3,.7671E-4,0
DIWATA-2B,2018-084H,2026-07-02T15:23:11.791680,15.00519036,.00131168,98.1200,20.5239,122.2595,237.9900,0,U,43678,999,41853,.18412876E-3,.2259E-4,0
ES'HAIL 2,2018-090A,2026-07-02T14:06:19.088352,1.00273103,.00022542,0.0179,32.1056,104.8137,21.0737,0,U,43700,999,2783,0,.155E-5,0
FOX-1CLIFF (AO-95),2018-099N,2026-07-02T09:54:50.558688,15.27034964,.00069315,97.4376,243.6054,295.2065,64.8455,0,U,43770,999,41554,.46807562E-3,.12359E-3,0
ITASAT,2018-099AE,2026-07-02T08:51:25.432704,15.19245229,.00108788,97.4016,234.5787,302.6059,57.4125,0,U,43786,999,41521,.38655862E-3,.8093E-4,0
JY1SAT (JO-97),2018-099AX,2026-07-02T14:55:37.712928,15.34152879,.00056509,97.4118,246.5140,198.6681,161.4355,0,U,43803,999,41599,.5420785E-3,.17868E-3,0
UWE-4,2018-111E,2026-07-02T13:10:53.364000,15.47089130,.00044075,97.5848,112.6583,255.3551,104.7210,0,U,43880,999,41315,.65830965E-3,.33348E-3,0
TIANYAN 01,2019-093C,2026-07-02T14:15:07.558272,14.86542749,.00145844,97.7532,255.4504,41.0624,319.1687,0,U,44881,999,35370,.6219557E-4,.498E-5,0
RS-44 & BREEZE-KM R/B,2019-096E,2026-07-02T09:45:52.192512,12.79748910,.02185299,82.5226,329.5910,108.7415,253.7536,0,U,44909,999,30429,-.3347535E-4,.5E-7,0
SALSAT,2020-068K,2026-07-02T06:06:00.402912,15.30013367,.00080377,97.8847,187.2381,243.7769,116.2645,0,U,46495,999,31766,.2998701E-3,.8637E-4,0
XW-3 (CAS-9),2021-131B,2026-07-02T14:30:23.370624,14.41371608,.00052031,98.4993,275.9110,61.7641,298.4072,0,U,50466,999,23733,.16727871E-3,.498E-5,0
GREENCUBE (IO-117),2022-080E,2026-06-30T17:23:31.202880,6.42583253,.00089588,70.1437,293.5372,286.6703,73.2973,0,U,53109,999,9293,0,-.3E-7,0
UMKA 1 (RS40S),2023-091G,2026-07-02T14:54:09.182304,15.20998984,.00140672,97.5040,242.2597,69.9565,290.3183,0,U,57172,999,16635,.30343917E-3,.6676E-4,0
CUBESX-HSE 3 (RS42S),2023-091N,2026-07-02T14:16:06.330144,15.31606578,.00110105,97.5082,249.3795,45.7690,314.4453,0,U,57178,999,16678,.46770281E-3,.14232E-3,0
MONITOR-3 (RS58S),2023-091Q,2026-07-02T12:32:14.758656,15.28152800,.00122787,97.5074,247.0831,52.5237,307.7117,0,U,57180,999,16663,.41918822E-3,.11458E-3,0
MONITOR-4 (RS57S),2023-091S,2026-07-02T15:09:26.176608,15.28241276,.00122831,97.5067,247.1652,52.6181,307.6175,0,U,57182,999,16665,.39983227E-3,.10955E-3,0
MONITOR-2 (RS39S),2023-091U,2026-07-02T14:18:01.344960,15.19054383,.00124396,97.5060,241.7797,64.2558,295.9959,0,U,57184,999,16629,.26802666E-3,.5559E-4,0
SVYATOBOR 1 (RS60S),2023-091X,2026-07-02T14:13:20.764416,15.26878126,.00100043,97.5079,247.4966,47.1188,313.0889,0,U,57187,999,16666,.37770934E-3,.9915E-4,0
VIZARD-METEO (RS38S),2023-091Z,2026-07-02T14:01:57.864000,15.36519545,.00069287,97.5084,253.3827,27.9005,332.2609,0,U,57189,999,16705,.48916014E-3,.17382E-3,0
POLYTECH-UNIVERSE 3 (RS46S),2023-091AB,2026-07-02T14:54:12.572640,15.19264178,.00169195,97.5036,241.3090,78.1447,282.1684,0,U,57191,999,16629,.27819391E-3,.5818E-4,0
UTMN 2 (RS27S),2023-091AP,2026-07-02T14:29:24.006048,15.32431484,.00080836,97.5079,251.0413,35.5159,324.6619,0,U,57203,999,16690,.44280069E-3,.13809E-3,0
